STARLINK-1585
1 46117U 20057A   26090.62042324  .00691823  23391-3  11902-2 0  9998
2 46117  53.0329 135.1287 0007525  23.9915 336.1464 16.01799712310530
